STARLINK-35880          
1 67187U 25303AA  25351.60835648 -.00002699  85337-5  00000+0 0  9995
2 67187  43.0100  69.0834 0011500 323.6500   9.4800 16.01284782    16
STARLINK-35675          
1 67188U 25303AB  25351.60835648 -.00002699  85337-5  00000+0 0  9996
2 67188  43.0100  69.0834 0011500 323.6500   9.4800 16.01284782    17
STARLINK-35889          
1 67189U 25303AC  25351.60835648 -.00002699  85337-5  00000+0 0  9997
2 67189  43.0100  69.0834 0011500 323.6500   9.4800 16.01284782    18
STARLINK-35888          
1 67190U 25303AD  25351.60835648 -.00002699  85337-5  00000+0 0  9999
2 67190  43.0100  69.0834 0011500 323.6500   9.4800 16.01284782    10
STARLINK-35716          
1 67191U 25303AE  25351.60835648 -.00002699  85337-5  00000+0 0  9990
2 67191  43.0100  69.0834 0011500 323.6500   9.4800 16.01284782    11
STARLINK-36182          
1 67192U 25304A   26008.58335648 -.00205421  00000+0 -47964-2 0  9994
2 67192  69.9998 332.2031 0003544 274.5374 193.4468 15.42811117  4751
STARLINK-36279          
1 67193U 25304B   26008.61495785  .00154002  00000+0  24529-2 0  9996
2 67193  70.0000 332.0297 0002690 270.3377  89.7501 15.52576173  4733
STARLINK-36284          
1 67194U 25304C   26008.58335648 -.02099441  00000+0 -43124-1 0  9994
2 67194  70.0002 332.1196 0003123 271.0587 270.0702 15.49251490  4789
STARLINK-36291          
1 67195U 25304D   26008.61427106  .00133147  00000+0  21272-2 0  9999
2 67195  70.0000 332.0271 0003003 269.7990  90.2853 15.52568962  4733
STARLINK-36239          
1 67196U 25304E   26008.58335648  .00037740  00000+0  86394-3 0  9994
2 67196  69.9999 332.1511 0002578 268.4456 244.5717 15.42610872  4780
STARLINK-36283          
1 67197U 25304F   26008.61323840  .00137668  00000+0  21995-2 0  9995
2 67197  70.0000 332.0230 0002946 267.1278  92.9572 15.52551325  4738
STARLINK-36267          
1 67198U 25304G   26008.61359468  .00142238  00000+0  22720-2 0  9997
2 67198  70.0000 332.0244 0002520 264.5922  95.4978 15.52540069  4707
